{
  "type": "FeatureCollection",
  "features": [
    {
      "type": "Feature",
      "properties": {
        "norad_id": 55973,
        "name": "TIANMU-1 03",
        "group": "weather",
        "lat": -79.30057801729562,
        "lon": -79.3077594519925,
        "alt_km": 454.34876944111966,
        "timestamp": "2025-12-08T10:52:02.591530+00:00",
        "meta_object_name": "TIANMU-1 03",
        "meta_object_id": "2023-039A",
        "meta_epoch": "2025-12-07T21:15:44.712288",
        "meta_mean_motion": 15.407106,
        "meta_eccentricity": 0.00045105,
        "meta_inclination": 97.5111,
        "meta_ra_of_asc_node": 144.4029,
        "meta_arg_of_pericenter": 75.4292,
        "meta_mean_anomaly": 284.7454,
        "meta_ephemeris_type": 0,
        "meta_classification_type": "U",
        "meta_norad_cat_id": 55973,
        "meta_element_set_no": 999,
        "meta_rev_at_epoch": 15131,
        "meta_bstar": 0.00045244746,
        "meta_mean_motion_dot": 0.00018419,
        "meta_mean_motion_ddot": 0,
        "tle_line1": "1 55973U 23039A   25341.88593417  .00018419  00000+0  45245-3 0  9991",
        "tle_line2": "2 55973  97.5111 144.4029 0004510  75.4292 284.7454 15.40710600151317"
      },
      "geometry": {
        "type": "Point",
        "coordinates": [
          -79.3077594519925,
          -79.30057801729562
        ]
      }
    },
    {
      "type": "Feature",
      "properties": {
        "norad_id": 55974,
        "name": "TIANMU-1 04",
        "group": "weather",
        "lat": 10.887672218774053,
        "lon": 142.72517352069087,
        "alt_km": 442.66078361559994,
        "timestamp": "2025-12-08T10:52:02.591540+00:00",
        "meta_object_name": "TIANMU-1 04",
        "meta_object_id": "2023-039B",
        "meta_epoch": "2025-12-07T22:21:10.101888",
        "meta_mean_motion": 15.41045963,
        "meta_eccentricity": 0.00051723,
        "meta_inclination": 97.5044,
        "meta_ra_of_asc_node": 143.6426,
        "meta_arg_of_pericenter": 70.6655,
        "meta_mean_anomaly": 289.515,
        "meta_ephemeris_type": 0,
        "meta_classification_type": "U",
        "meta_norad_cat_id": 55974,
        "meta_element_set_no": 999,
        "meta_rev_at_epoch": 15132,
        "meta_bstar": 0.00046632175,
        "meta_mean_motion_dot": 0.00019202,
        "meta_mean_motion_ddot": 0,
        "tle_line1": "1 55974U 23039B   25341.93136692  .00019202  00000+0  46632-3 0  9998",
        "tle_line2": "2 55974  97.5044 143.6426 0005172  70.6655 289.5150 15.41045963151321"
      },
      "geometry": {
        "type": "Point",
        "coordinates": [
          142.72517352069087,
          10.887672218774053
        ]
      }
    },
    {
      "type": "Feature",
      "properties": {
        "norad_id": 55975,
        "name": "TIANMU-1 05",
        "group": "weather",
        "lat": 48.19889038297005,
        "lon": 136.18705828582893,
        "alt_km": 437.5809205120813,
        "timestamp": "2025-12-08T10:52:02.591559+00:00",
        "meta_object_name": "TIANMU-1 05",
        "meta_object_id": "2023-039C",
        "meta_epoch": "2025-12-07T22:11:11.179680",
        "meta_mean_motion": 15.40670238,
        "meta_eccentricity": 0.0004368,
        "meta_inclination": 97.5089,
        "meta_ra_of_asc_node": 144.1277,
        "meta_arg_of_pericenter": 92.0824,
        "meta_mean_anomaly": 268.0923,
        "meta_ephemeris_type": 0,
        "meta_classification_type": "U",
        "meta_norad_cat_id": 55975,
        "meta_element_set_no": 999,
        "meta_rev_at_epoch": 15130,
        "meta_bstar": 0.00045539747,
        "meta_mean_motion_dot": 0.00018515,
        "meta_mean_motion_ddot": 0,
        "tle_line1": "1 55975U 23039C   25341.92443495  .00018515  00000+0  45540-3 0  9993",
        "tle_line2": "2 55975  97.5089 144.1277 0004368  92.0824 268.0923 15.40670238151309"
      },
      "geometry": {
        "type": "Point",
        "coordinates": [
          136.18705828582893,
          48.19889038297005
        ]
      }
    },
    {
      "type": "Feature",
      "properties": {
        "norad_id": 55976,
        "name": "TIANMU-1 06",
        "group": "weather",
        "lat": -1.8735556566491565,
        "lon": 145.3791196370937,
        "alt_km": 446.0041002321932,
        "timestamp": "2025-12-08T10:52:02.591570+00:00",
        "meta_object_name": "TIANMU-1 06",
        "meta_object_id": "2023-039D",
        "meta_epoch": "2025-12-07T22:24:32.075712",
        "meta_mean_motion": 15.41098617,
        "meta_eccentricity": 0.00046759,
        "meta_inclination": 97.5101,
        "meta_ra_of_asc_node": 144.5983,
        "meta_arg_of_pericenter": 87.2673,
        "meta_mean_anomaly": 272.9109,
        "meta_ephemeris_type": 0,
        "meta_classification_type": "U",
        "meta_norad_cat_id": 55976,
        "meta_element_set_no": 999,
        "meta_rev_at_epoch": 15132,
        "meta_bstar": 0.00046789398,
        "meta_mean_motion_dot": 0.00019299,
        "meta_mean_motion_ddot": 0,
        "tle_line1": "1 55976U 23039D   25341.93370458  .00019299  00000+0  46789-3 0  9999",
        "tle_line2": "2 55976  97.5101 144.5983 0004675  87.2673 272.9109 15.41098617151320"
      },
      "geometry": {
        "type": "Point",
        "coordinates": [
          145.3791196370937,
          -1.8735556566491565
        ]
      }
    },
    {
      "type": "Feature",
      "properties": {
        "norad_id": 56232,
        "name": "FENGYUN 3G",
        "group": "weather",
        "lat": -26.033330877101257,
        "lon": 93.79054313478572,
        "alt_km": 410.05349465866675,
        "timestamp": "2025-12-08T10:52:02.591580+00:00",
        "meta_object_name": "FENGYUN 3G",
        "meta_object_id": "2023-055A",
        "meta_epoch": "2025-12-07T23:08:21.089472",
        "meta_mean_motion": 15.53223831,
        "meta_eccentricity": 0.00092574,
        "meta_inclination": 49.9939,
        "meta_ra_of_asc_node": 252.092,
        "meta_arg_of_pericenter": 126.0947,
        "meta_mean_anomaly": 234.0879,
        "meta_ephemeris_type": 0,
        "meta_classification_type": "U",
        "meta_norad_cat_id": 56232,
        "meta_element_set_no": 999,
        "meta_rev_at_epoch": 15028,
        "meta_bstar": 0.00063358292,
        "meta_mean_motion_dot": 0.00040444,
        "meta_mean_motion_ddot": 0,
        "tle_line1": "1 56232U 23055A   25341.96413298  .00040444  00000+0  63358-3 0  9993",
        "tle_line2": "2 56232  49.9939 252.0920 0009257 126.0947 234.0879 15.53223831150287"
      },
      "geometry": {
        "type": "Point",
        "coordinates": [
          93.79054313478572,
          -26.033330877101257
        ]
      }
    },
    {
      "type": "Feature",
      "properties": {
        "norad_id": 57166,
        "name": "METEOR-M2 3",
        "group": "weather",
        "lat": -61.580229809109206,
        "lon": -160.24848321049586,
        "alt_km": 821.1356776892453,
        "timestamp": "2025-12-08T10:52:02.591591+00:00",
        "meta_object_name": "METEOR-M2 3",
        "meta_object_id": "2023-091A",
        "meta_epoch": "2025-12-07T21:55:35.340672",
        "meta_mean_motion": 14.24025199,
        "meta_eccentricity": 0.00041791,
        "meta_inclination": 98.6385,
        "meta_ra_of_asc_node": 35.5371,
        "meta_arg_of_pericenter": 22.0951,
        "meta_mean_anomaly": 338.0408,
        "meta_ephemeris_type": 0,
        "meta_classification_type": "U",
        "meta_norad_cat_id": 57166,
        "meta_element_set_no": 999,
        "meta_rev_at_epoch": 12729,
        "meta_bstar": 3.9158813e-05,
        "meta_mean_motion_dot": 4.6e-07,
        "meta_mean_motion_ddot": 0,
        "tle_line1": "1 57166U 23091A   25341.91360348  .00000046  00000+0  39159-4 0  9999",
        "tle_line2": "2 57166  98.6385  35.5371 0004179  22.0951 338.0408 14.24025199127294"
      },
      "geometry": {
        "type": "Point",
        "coordinates": [
          -160.24848321049586,
          -61.580229809109206
        ]
      }
    },
    {
      "type": "Feature",
      "properties": {
        "norad_id": 57399,
        "name": "TIANMU-1 07",
        "group": "weather",
        "lat": -82.32971957388831,
        "lon": 140.54713158671888,
        "alt_km": 493.0968113314357,
        "timestamp": "2025-12-08T10:52:02.591601+00:00",
        "meta_object_name": "TIANMU-1 07",
        "meta_object_id": "2023-101A",
        "meta_epoch": "2025-12-07T21:07:33.857472",
        "meta_mean_motion": 15.27965789,
        "meta_eccentricity": 0.00056419,
        "meta_inclination": 97.2878,
        "meta_ra_of_asc_node": 31.8375,
        "meta_arg_of_pericenter": 93.7421,
        "meta_mean_anomaly": 266.4464,
        "meta_ephemeris_type": 0,
        "meta_classification_type": "U",
        "meta_norad_cat_id": 57399,
        "meta_element_set_no": 999,
        "meta_rev_at_epoch": 13241,
        "meta_bstar": 0.00035593141,
        "meta_mean_motion_dot": 9.647e-05,
        "meta_mean_motion_ddot": 0,
        "tle_line1": "1 57399U 23101A   25341.88025298  .00009647  00000+0  35593-3 0  9990",
        "tle_line2": "2 57399  97.2878  31.8375 0005641  93.7421 266.4464 15.27965789132417"
      },
      "geometry": {
        "type": "Point",
        "coordinates": [
          140.54713158671888,
          -82.32971957388831
        ]
      }
    }
  ]
}